{"fetched_at":"2026-07-11T06:35:06.838Z","source":"https://celestrak.org/NORAD/elements/gp.php?GROUP=oneweb&FORMAT=JSON","constellation":"oneweb","records":[{"OBJECT_NAME":"ONEWEB-0628","OBJECT_ID":"2023-004AF","EPOCH":"2026-07-09T08:40:19.255872","CLASSIFICATION_TYPE":"U","MEAN_MOTION":13.12441889,"ECCENTRICITY":0.00016649,"INCLINATION":87.8962,"RA_OF_ASC_NODE":346.2436,"ARG_OF_PERICENTER":74.3322,"MEAN_ANOMALY":285.799,"EPHEMERIS_TYPE":0,"NORAD_CAT_ID":55169,"ELEMENT_SET_NO":999,"REV_AT_EPOCH":17094,"BSTAR":0.00047665202,"MEAN_MOTION_DOT":0.00000184,"MEAN_MOTION_DDOT":0},{"OBJECT_NAME":"ONEWEB-0629","OBJECT_ID":"2023-004AG","EPOCH":"2026-07-10T10:13:18.255936","CLASSIFICATION_TYPE":"U","MEAN_MOTION":13.17649495,"ECCENTRICITY":0.00015687,"INCLINATION":87.9135,"RA_OF_ASC_NODE":1.2465,"ARG_OF_PERICENTER":87.0144,"MEAN_ANOMALY":273.1167,"EPHEMERIS_TYPE":0,"NORAD_CAT_ID":55170,"ELEMENT_SET_NO":999,"REV_AT_EPOCH":17064,"BSTAR":0.000084601318,"MEAN_MOTION_DOT":4.6e-7,"MEAN_MOTION_DDOT":0},{"OBJECT_NAME":"ONEWEB-0631","OBJECT_ID":"2023-004AH","EPOCH":"2026-07-10T07:40:22.005696","CLASSIFICATION_TYPE":"U","MEAN_MOTION":13.18686612,"ECCENTRICITY":0.00023654,"INCLINATION":87.9192,"RA_OF_ASC_NODE":330.8355,"ARG_OF_PERICENTER":92.0607,"MEAN_ANOMALY":268.0796,"EPHEMERIS_TYPE":0,"NORAD_CAT_ID":55171,"ELEMENT_SET_NO":999,"REV_AT_EPOCH":17272,"BSTAR":0.000013324767,"MEAN_MOTION_DOT":1.8e-7,"MEAN_MOTION_DDOT":0},{"OBJECT_NAME":"ONEWEB-0709","OBJECT_ID":"2023-004AJ","EPOCH":"2026-07-09T11:35:31.215552","CLASSIFICATION_TYPE":"U","MEAN_MOTION":13.11417922,"ECCENTRICITY":0.00025448,"INCLINATION":87.8875,"RA_OF_ASC_NODE":16.6387,"ARG_OF_PERICENTER":103.0814,"MEAN_ANOMALY":257.0598,"EPHEMERIS_TYPE":0,"NORAD_CAT_ID":55172,"ELEMENT_SET_NO":999,"REV_AT_EPOCH":16879,"BSTAR":-0.00061140483,"MEAN_MOTION_DOT":-0.00000204,"MEAN_MOTION_DDOT":0},{"OBJECT_NAME":"ONEWEB-0710","OBJECT_ID":"2023-004AK","EPOCH":"2026-07-09T18:09:49.019040","CLASSIFICATION_TYPE":"U","MEAN_MOTION":13.17647297,"ECCENTRICITY":0.00019043,"INCLINATION":87.9136,"RA_OF_ASC_NODE":1.375,"ARG_OF_PERICENTER":87.2591,"MEAN_ANOMALY":272.8758,"EPHEMERIS_TYPE":0,"NORAD_CAT_ID":55173,"ELEMENT_SET_NO":999,"REV_AT_EPOCH":17055,"BSTAR":0.000053044806,"MEAN_MOTION_DOT":3.3e-7,"MEAN_MOTION_DDOT":0},{"OBJECT_NAME":"ONEWEB-0711","OBJECT_ID":"2023-004AL","EPOCH":"2026-07-10T10:42:17.681472","CLASSIFICATION_TYPE":"U","MEAN_MOTION":13.11414386,"ECCENTRICITY":0.0001985,"INCLINATION":87.8867,"RA_OF_ASC_NODE":16.4355,"ARG_OF_PERICENTER":69.2301,"MEAN_ANOMALY":290.904,"EPHEMERIS_TYPE":0,"NORAD_CAT_ID":55174,"ELEMENT_SET_NO":999,"REV_AT_EPOCH":16888,"BSTAR":0.00011919334,"MEAN_MOTION_DOT":5.5e-7,"MEAN_MOTION_DDOT":0},{"OBJECT_NAME":"ONEWEB-0713","OBJECT_ID":"2023-004AM","EPOCH":"2026-07-10T11:09:08.615520","CLASSIFICATION_TYPE":"U","MEAN_MOTION":13.11416151,"ECCENTRICITY":0.0001973,"INCLINATION":87.888,"RA_OF_ASC_NODE":16.4332,"ARG_OF_PERICENTER":78.0141,"MEAN_ANOMALY":282.1208,"EPHEMERIS_TYPE":0,"NORAD_CAT_ID":55175,"ELEMENT_SET_NO":999,"REV_AT_EPOCH":16887,"BSTAR":-0.0015084667,"MEAN_MOTION_DOT":-0.00000522,"MEAN_MOTION_DDOT":0},{"OBJECT_NAME":"ONEWEB-0715","OBJECT_ID":"2023-004AN","EPOCH":"2026-07-10T11:01:49.105632","CLASSIFICATION_TYPE":"U","MEAN_MOTION":13.1141535,"ECCENTRICITY":0.00024676,"INCLINATION":87.8878,"RA_OF_ASC_NODE":16.4338,"ARG_OF_PERICENTER":94.1665,"MEAN_ANOMALY":265.9745,"EPHEMERIS_TYPE":0,"NORAD_CAT_ID":55176,"ELEMENT_SET_NO":999,"REV_AT_EPOCH":16891,"BSTAR":-0.0013626794,"MEAN_MOTION_DOT":-0.0000047,"MEAN_MOTION_DDOT":0},{"OBJECT_NAME":"ONEWEB-0716","OBJECT_ID":"2023-004AP","EPOCH":"2026-07-10T10:24:13.725216","CLASSIFICATION_TYPE":"U","MEAN_MOTION":13.17647567,"ECCENTRICITY":0.00017268,"INCLINATION":87.9134,"RA_OF_ASC_NODE":1.243,"ARG_OF_PERICENTER":97.8063,"MEAN_ANOMALY":262.3265,"EPHEMERIS_TYPE":0,"NORAD_CAT_ID":55177,"ELEMENT_SET_NO":999,"REV_AT_EPOCH":17064,"BSTAR":0.00018217095,"MEAN_MOTION_DOT":8.4e-7,"MEAN_MOTION_DDOT":0},{"OBJECT_NAME":"ONEWEB-0717","OBJECT_ID":"2023-004AQ","EPOCH":"2026-07-09T17:35:48.321888","CLASSIFICATION_TYPE":"U","MEAN_MOTION":13.17649725,"ECCENTRICITY":0.00022001,"INCLINATION":87.9145,"RA_OF_ASC_NODE":1.3723,"ARG_OF_PERICENTER":78.5045,"MEAN_ANOMALY":281.6333,"EPHEMERIS_TYPE":0,"NORAD_CAT_ID":55178,"ELEMENT_SET_NO":999,"REV_AT_EPOCH":17060,"BSTAR":-0.00012726766,"MEAN_MOTION_DOT":-3.7e-7,"MEAN_MOTION_DDOT":0},{"OBJECT_NAME":"ONEWEB-0719","OBJECT_ID":"2023-004AR","EPOCH":"2026-07-10T10:14:30.621120","CLASSIFICATION_TYPE":"U","MEAN_MOTION":13.1765042,"ECCENTRICITY":0.00016591,"INCLINATION":87.9146,"RA_OF_ASC_NODE":1.2147,"ARG_OF_PERICENTER":93.2731,"MEAN_ANOMALY":266.859,"EPHEMERIS_TYPE":0,"NORAD_CAT_ID":55179,"ELEMENT_SET_NO":999,"REV_AT_EPOCH":17064,"BSTAR":0.000074792369,"MEAN_MOTION_DOT":4.2e-7,"MEAN_MOTION_DDOT":0},{"OBJECT_NAME":"ONEWEB-0530","OBJECT_ID":"2023-029A","EPOCH":"2026-07-10T04:41:52.622880","CLASSIFICATION_TYPE":"U","MEAN_MOTION":13.20772608,"ECCENTRICITY":0.00019236,"INCLINATION":87.918,"RA_OF_ASC_NODE":269.8821,"ARG_OF_PERICENTER":87.5794,"MEAN_ANOMALY":272.5559,"EPHEMERIS_TYPE":0,"NORAD_CAT_ID":55796,"ELEMENT_SET_NO":999,"REV_AT_EPOCH":16418,"BSTAR":0.000014782479,"MEAN_MOTION_DOT":1.9e-7,"MEAN_MOTION_DDOT":0},{"OBJECT_NAME":"ONEWEB-0534","OBJECT_ID":"2023-029B","EPOCH":"2026-07-10T04:24:53.485632","CLASSIFICATION_TYPE":"U","MEAN_MOTION":13.20772961,"ECCENTRICITY":0.00020007,"INCLINATION":87.9179,"RA_OF_ASC_NODE":269.886,"ARG_OF_PERICENTER":102.5119,"MEAN_ANOMALY":257.6238,"EPHEMERIS_TYPE":0,"NORAD_CAT_ID":55797,"ELEMENT_SET_NO":999,"REV_AT_EPOCH":16418,"BSTAR":0.00016960714,"MEAN_MOTION_DOT":8.2e-7,"MEAN_MOTION_DDOT":0},{"OBJECT_NAME":"ONEWEB-0556","OBJECT_ID":"2023-029C","EPOCH":"2026-07-09T04:56:21.630624","CLASSIFICATION_TYPE":"U","MEAN_MOTION":13.20788951,"ECCENTRICITY":0.00014158,"INCLINATION":87.9176,"RA_OF_ASC_NODE":270.0786,"ARG_OF_PERICENTER":100.6192,"MEAN_ANOMALY":259.5101,"EPHEMERIS_TYPE":0,"NORAD_CAT_ID":55798,"ELEMENT_SET_NO":999,"REV_AT_EPOCH":16405,"BSTAR":-0.0059176599,"MEAN_MOTION_DOT":-0.00002393,"MEAN_MOTION_DDOT":0},{"OBJECT_NAME":"ONEWEB-0562","OBJECT_ID":"2023-029D","EPOCH":"2026-07-10T04:15:12.669408","CLASSIFICATION_TYPE":"U","MEAN_MOTION":13.20772131,"ECCENTRICITY":0.00014961,"INCLINATION":87.9176,"RA_OF_ASC_NODE":269.8672,"ARG_OF_PERICENTER":79.5484,"MEAN_ANOMALY":280.5818,"EPHEMERIS_TYPE":0,"NORAD_CAT_ID":55799,"ELEMENT_SET_NO":999,"REV_AT_EPOCH":16418,"BSTAR":0.000049337772,"MEAN_MOTION_DOT":3.3e-7,"MEAN_MOTION_DDOT":0},{"OBJECT_NAME":"ONEWEB-0563","OBJECT_ID":"2023-029E","EPOCH":"2026-07-10T04:07:55.030080","CLASSIFICATION_TYPE":"U","MEAN_MOTION":13.20773259,"ECCENTRICITY":0.0002073,"INCLINATION":87.9176,"RA_OF_ASC_NODE":269.8983,"ARG_OF_PERICENTER":106.2239,"MEAN_ANOMALY":253.9122,"EPHEMERIS_TYPE":0,"NORAD_CAT_ID":55800,"ELEMENT_SET_NO":999,"REV_AT_EPOCH":16417,"BSTAR":0.000026133915,"MEAN_MOTION_DOT":2.4e-7,"MEAN_MOTION_DDOT":0}]}
