ONEWEB-0628             
1 55169U 23004AF  26190.36133398  .00000184  00000+0  47665-3 0  9992
2 55169  87.8962 346.2436 0001664  74.3322 285.7990 13.12441889170946
ONEWEB-0629             
1 55170U 23004AG  26191.42590574  .00000046  00000+0  84601-4 0  9994
2 55170  87.9135   1.2465 0001568  87.0144 273.1167 13.17649495170649
ONEWEB-0631             
1 55171U 23004AH  26191.31969914  .00000018  00000+0  13325-4 0  9995
2 55171  87.9192 330.8355 0002365  92.0607 268.0796 13.18686612172723
ONEWEB-0709             
1 55172U 23004AJ  26190.48300018 -.00000204  00000+0 -61140-3 0  9993
2 55172  87.8875  16.6387 0002544 103.0814 257.0598 13.11417922168796
ONEWEB-0710             
1 55173U 23004AK  26190.75681735  .00000033  00000+0  53045-4 0  9996
2 55173  87.9136   1.3750 0001904  87.2591 272.8758 13.17647297170553
ONEWEB-0711             
1 55174U 23004AL  26191.44603798  .00000055  00000+0  11919-3 0  9994
2 55174  87.8867  16.4355 0001985  69.2301 290.9040 13.11414386168883
ONEWEB-0713             
1 55175U 23004AM  26191.46468305 -.00000522  00000+0 -15085-2 0  9998
2 55175  87.8880  16.4332 0001973  78.0141 282.1208 13.11416151168871
ONEWEB-0715             
1 55176U 23004AN  26191.45959613 -.00000470  00000+0 -13627-2 0  9997
2 55176  87.8878  16.4338 0002467  94.1665 265.9745 13.11415350168914
ONEWEB-0716             
1 55177U 23004AP  26191.43349219  .00000084  00000+0  18217-3 0  9991
2 55177  87.9134   1.2430 0001726  97.8063 262.3265 13.17647567170649
ONEWEB-0717             
1 55178U 23004AQ  26190.73319817 -.00000037  00000+0 -12727-3 0  9995
2 55178  87.9145   1.3723 0002200  78.5045 281.6333 13.17649725170606
ONEWEB-0719             
1 55179U 23004AR  26191.42674330  .00000042  00000+0  74792-4 0  9992
2 55179  87.9146   1.2147 0001659  93.2731 266.8590 13.17650420170648
ONEWEB-0530             
1 55796U 23029A   26191.19574795  .00000019  00000+0  14782-4 0  9999
2 55796  87.9180 269.8821 0001923  87.5794 272.5559 13.20772608164189
ONEWEB-0534             
1 55797U 23029B   26191.18395238  .00000082  00000+0  16961-3 0  9992
2 55797  87.9179 269.8860 0002000 102.5119 257.6238 13.20772961164187
ONEWEB-0556             
1 55798U 23029C   26190.20580591 -.00002393  00000+0 -59177-2 0  9997
2 55798  87.9176 270.0786 0001415 100.6192 259.5101 13.20788951164057
ONEWEB-0562             
1 55799U 23029D   26191.17722997  .00000033  00000+0  49338-4 0  9990
2 55799  87.9176 269.8672 0001496  79.5484 280.5818 13.20772131164181
ONEWEB-0563             
1 55800U 23029E   26191.17216470  .00000024  00000+0  26134-4 0  9996
2 55800  87.9176 269.8983 0002073 106.2239 253.9122 13.20773259164170
